VIGORIDE-3              
1 52760U 22057AE  26068.92149362  .00008532  00000+0  33326-3 0  9991
2 52760  97.6431 206.4459 0009778 111.2279 249.0004 15.26101220210019
STARLINK-36149          
1 66969U 25288L   26067.90670782  .00030524  00000+0  11146-2 0  9999
2 66969  42.9976  28.2236 0000922 288.8294  71.2457 15.27566533 15164
